[{"OBJECT_NAME":"ONEWEB-0662","OBJECT_ID":"2023-029AC","EPOCH":"2026-03-09T17:03:05.956704","MEAN_MOTION":13.14503433,"ECCENTRICITY":0.00015332,"INCLINATION":87.8979,"RA_OF_ASC_NODE":309.6088,"ARG_OF_PERICENTER":96.7206,"MEAN_ANOMALY":263.4098,"EPHEMERIS_TYPE":0,"CLASSIFICATION_TYPE":"U","NORAD_CAT_ID":55822,"ELEMENT_SET_NO":999,"REV_AT_EPOCH":14636,"BSTAR":-0.00010567397,"MEAN_MOTION_DOT":-2.6e-7,"MEAN_MOTION_DDOT":0},{"OBJECT_NAME":"SL-14 DEB","OBJECT_ID":"1991-056CZ","EPOCH":"2026-03-08T22:20:38.504544","MEAN_MOTION":12.99800818,"ECCENTRICITY":0.01070198,"INCLINATION":82.5347,"RA_OF_ASC_NODE":256.9477,"ARG_OF_PERICENTER":318.1704,"MEAN_ANOMALY":41.1264,"EPHEMERIS_TYPE":0,"CLASSIFICATION_TYPE":"U","NORAD_CAT_ID":45655,"ELEMENT_SET_NO":999,"REV_AT_EPOCH":28781,"BSTAR":0.00022514106,"MEAN_MOTION_DOT":8.0e-7,"MEAN_MOTION_DDOT":0}]
